[{"OBJECT_NAME":"STARLINK-3887","OBJECT_ID":"2022-049AK","EPOCH":"2026-03-09T22:56:16.518336","MEAN_MOTION":15.08824226,"ECCENTRICITY":0.00010931,"INCLINATION":53.217,"RA_OF_ASC_NODE":57.9255,"ARG_OF_PERICENTER":78.1117,"MEAN_ANOMALY":281.9998,"EPHEMERIS_TYPE":0,"CLASSIFICATION_TYPE":"U","NORAD_CAT_ID":52484,"ELEMENT_SET_NO":999,"REV_AT_EPOCH":21229,"BSTAR":0.00012926291,"MEAN_MOTION_DOT":1.769e-5,"MEAN_MOTION_DDOT":0},{"OBJECT_NAME":"SL-24 R\/B","OBJECT_ID":"2013-042B","EPOCH":"2026-03-09T12:40:44.242176","MEAN_MOTION":14.08721534,"ECCENTRICITY":0.04493882,"INCLINATION":97.5179,"RA_OF_ASC_NODE":292.5098,"ARG_OF_PERICENTER":125.3337,"MEAN_ANOMALY":239.0716,"EPHEMERIS_TYPE":0,"CLASSIFICATION_TYPE":"U","NORAD_CAT_ID":39228,"ELEMENT_SET_NO":999,"REV_AT_EPOCH":64027,"BSTAR":0.00010261222,"MEAN_MOTION_DOT":4.15e-6,"MEAN_MOTION_DDOT":0}]
